GLOBALSTAR M082         
1 38042U 11080C   26116.49086214 -.00000086  00000+0  96592-4 0  9996
2 38042  52.0050 131.8595 0000378 144.0711  17.8516 12.62269336663068
GLOBALSTAR M092         
1 38043U 11080D   26116.44578100 -.00000105  00000+0 -68724-5 0  9992
2 38043  52.0084 222.3917 0000520 121.3668 314.9840 12.62266698661515
GLOBALSTAR M090         
1 38044U 11080E   26116.32672904 -.00000088  00000+0  89293-4 0  9999
2 38044  52.0100 126.2978 0000081 111.1702 263.6694 12.62268299663161
GLOBALSTAR M086         
1 38045U 11080F   26116.45859764 -.00000080  00000+0  13118-3 0  9999
2 38045  51.9873 125.9110 0000860 303.8613 207.9794 12.62285493663120
GLOBALSTAR M097         
1 39072U 13005A   26116.45507163 -.00000102  00000+0  10361-4 0  9995
2 39072  52.0065  40.8071 0000425  76.4160 283.6755 12.62260085610371
GLOBALSTAR M093         
1 39073U 13005B   26116.50800443 -.00000098  00000+0  31047-4 0  9997
2 39073  52.0127  33.9758 0000318  84.3425 275.7478 12.62264601610337
GLOBALSTAR M094         
1 39074U 13005C   26116.50806380 -.00000076  00000+0  15284-3 0  9994
2 39074  51.9962 308.1480 0000651 113.6581 246.4354 12.62267871611949
GLOBALSTAR M096         
1 39075U 13005D   26116.36300947 -.00000086  00000+0  10152-3 0  9997
2 39075  52.0099 357.3487 0000646  94.3839 265.7101 12.62264355610847
GLOBALSTAR M078         
1 39076U 13005E   26116.25673882 -.00000103  00000+0  45893-5 0  9999
2 39076  51.9867  81.7479 0001046 128.2942 231.8018 12.62266029609451
GLOBALSTAR M095         
1 39077U 13005F   26116.28355394 -.00000100  00000+0  18312-4 0  9990
2 39077  52.0074  79.1980 0000374 129.5851 230.5049 12.62267347609317
GLOBALSTAR M087         
1 52888U 22064A   26116.53455976 -.00000098  00000+0  31301-4 0  9994
2 52888  51.9994 219.7073 0000597 153.4691 206.6206 12.62268388184617
