[{"OBJECT_NAME":"GLOBALSTAR M082","OBJECT_ID":"2011-080C","EPOCH":"2026-04-26T11:46:50.488896","MEAN_MOTION":12.62269336,"ECCENTRICITY":3.78e-5,"INCLINATION":52.005,"RA_OF_ASC_NODE":131.8595,"ARG_OF_PERICENTER":144.0711,"MEAN_ANOMALY":17.8516,"EPHEMERIS_TYPE":0,"CLASSIFICATION_TYPE":"U","NORAD_CAT_ID":38042,"ELEMENT_SET_NO":999,"REV_AT_EPOCH":66306,"BSTAR":9.6592e-5,"MEAN_MOTION_DOT":-8.6e-7,"MEAN_MOTION_DDOT":0},{"OBJECT_NAME":"GLOBALSTAR M092","OBJECT_ID":"2011-080D","EPOCH":"2026-04-26T10:41:55.478400","MEAN_MOTION":12.62266698,"ECCENTRICITY":5.2e-5,"INCLINATION":52.0084,"RA_OF_ASC_NODE":222.3917,"ARG_OF_PERICENTER":121.3668,"MEAN_ANOMALY":314.984,"EPHEMERIS_TYPE":0,"CLASSIFICATION_TYPE":"U","NORAD_CAT_ID":38043,"ELEMENT_SET_NO":999,"REV_AT_EPOCH":66151,"BSTAR":-6.8724e-6,"MEAN_MOTION_DOT":-1.05e-6,"MEAN_MOTION_DDOT":0},{"OBJECT_NAME":"GLOBALSTAR M090","OBJECT_ID":"2011-080E","EPOCH":"2026-04-26T07:50:29.389056","MEAN_MOTION":12.62268299,"ECCENTRICITY":8.1e-6,"INCLINATION":52.01,"RA_OF_ASC_NODE":126.2978,"ARG_OF_PERICENTER":111.1702,"MEAN_ANOMALY":263.6694,"EPHEMERIS_TYPE":0,"CLASSIFICATION_TYPE":"U","NORAD_CAT_ID":38044,"ELEMENT_SET_NO":999,"REV_AT_EPOCH":66316,"BSTAR":8.9293e-5,"MEAN_MOTION_DOT":-8.8e-7,"MEAN_MOTION_DDOT":0},{"OBJECT_NAME":"GLOBALSTAR M086","OBJECT_ID":"2011-080F","EPOCH":"2026-04-26T11:00:22.836096","MEAN_MOTION":12.62285493,"ECCENTRICITY":8.6e-5,"INCLINATION":51.9873,"RA_OF_ASC_NODE":125.911,"ARG_OF_PERICENTER":303.8613,"MEAN_ANOMALY":207.9794,"EPHEMERIS_TYPE":0,"CLASSIFICATION_TYPE":"U","NORAD_CAT_ID":38045,"ELEMENT_SET_NO":999,"REV_AT_EPOCH":66312,"BSTAR":0.00013118,"MEAN_MOTION_DOT":-8.0e-7,"MEAN_MOTION_DDOT":0},{"OBJECT_NAME":"GLOBALSTAR M097","OBJECT_ID":"2013-005A","EPOCH":"2026-04-26T10:55:18.188832","MEAN_MOTION":12.62260085,"ECCENTRICITY":4.25e-5,"INCLINATION":52.0065,"RA_OF_ASC_NODE":40.8071,"ARG_OF_PERICENTER":76.416,"MEAN_ANOMALY":283.6755,"EPHEMERIS_TYPE":0,"CLASSIFICATION_TYPE":"U","NORAD_CAT_ID":39072,"ELEMENT_SET_NO":999,"REV_AT_EPOCH":61037,"BSTAR":1.0361e-5,"MEAN_MOTION_DOT":-1.02e-6,"MEAN_MOTION_DDOT":0},{"OBJECT_NAME":"GLOBALSTAR M093","OBJECT_ID":"2013-005B","EPOCH":"2026-04-26T12:11:31.582752","MEAN_MOTION":12.62264601,"ECCENTRICITY":3.18e-5,"INCLINATION":52.0127,"RA_OF_ASC_NODE":33.9758,"ARG_OF_PERICENTER":84.3425,"MEAN_ANOMALY":275.7478,"EPHEMERIS_TYPE":0,"CLASSIFICATION_TYPE":"U","NORAD_CAT_ID":39073,"ELEMENT_SET_NO":999,"REV_AT_EPOCH":61033,"BSTAR":3.1047e-5,"MEAN_MOTION_DOT":-9.8e-7,"MEAN_MOTION_DDOT":0},{"OBJECT_NAME":"GLOBALSTAR M094","OBJECT_ID":"2013-005C","EPOCH":"2026-04-26T12:11:36.712320","MEAN_MOTION":12.62267871,"ECCENTRICITY":6.51e-5,"INCLINATION":51.9962,"RA_OF_ASC_NODE":308.148,"ARG_OF_PERICENTER":113.6581,"MEAN_ANOMALY":246.4354,"EPHEMERIS_TYPE":0,"CLASSIFICATION_TYPE":"U","NORAD_CAT_ID":39074,"ELEMENT_SET_NO":999,"REV_AT_EPOCH":61194,"BSTAR":0.00015284,"MEAN_MOTION_DOT":-7.6e-7,"MEAN_MOTION_DDOT":0},{"OBJECT_NAME":"GLOBALSTAR M096","OBJECT_ID":"2013-005D","EPOCH":"2026-04-26T08:42:44.018208","MEAN_MOTION":12.62264355,"ECCENTRICITY":6.46e-5,"INCLINATION":52.0099,"RA_OF_ASC_NODE":357.3487,"ARG_OF_PERICENTER":94.3839,"MEAN_ANOMALY":265.7101,"EPHEMERIS_TYPE":0,"CLASSIFICATION_TYPE":"U","NORAD_CAT_ID":39075,"ELEMENT_SET_NO":999,"REV_AT_EPOCH":61084,"BSTAR":0.00010152,"MEAN_MOTION_DOT":-8.6e-7,"MEAN_MOTION_DDOT":0},{"OBJECT_NAME":"GLOBALSTAR M078","OBJECT_ID":"2013-005E","EPOCH":"2026-04-26T06:09:42.234048","MEAN_MOTION":12.62266029,"ECCENTRICITY":0.0001046,"INCLINATION":51.9867,"RA_OF_ASC_NODE":81.7479,"ARG_OF_PERICENTER":128.2942,"MEAN_ANOMALY":231.8018,"EPHEMERIS_TYPE":0,"CLASSIFICATION_TYPE":"U","NORAD_CAT_ID":39076,"ELEMENT_SET_NO":999,"REV_AT_EPOCH":60945,"BSTAR":4.5893e-6,"MEAN_MOTION_DOT":-1.03e-6,"MEAN_MOTION_DDOT":0},{"OBJECT_NAME":"GLOBALSTAR M095","OBJECT_ID":"2013-005F","EPOCH":"2026-04-26T06:48:19.060416","MEAN_MOTION":12.62267347,"ECCENTRICITY":3.74e-5,"INCLINATION":52.0074,"RA_OF_ASC_NODE":79.198,"ARG_OF_PERICENTER":129.5851,"MEAN_ANOMALY":230.5049,"EPHEMERIS_TYPE":0,"CLASSIFICATION_TYPE":"U","NORAD_CAT_ID":39077,"ELEMENT_SET_NO":999,"REV_AT_EPOCH":60931,"BSTAR":1.8312e-5,"MEAN_MOTION_DOT":-1.0e-6,"MEAN_MOTION_DDOT":0},{"OBJECT_NAME":"GLOBALSTAR M087","OBJECT_ID":"2022-064A","EPOCH":"2026-04-26T12:49:45.963264","MEAN_MOTION":12.62268388,"ECCENTRICITY":5.97e-5,"INCLINATION":51.9994,"RA_OF_ASC_NODE":219.7073,"ARG_OF_PERICENTER":153.4691,"MEAN_ANOMALY":206.6206,"EPHEMERIS_TYPE":0,"CLASSIFICATION_TYPE":"U","NORAD_CAT_ID":52888,"ELEMENT_SET_NO":999,"REV_AT_EPOCH":18461,"BSTAR":3.1301e-5,"MEAN_MOTION_DOT":-9.8e-7,"MEAN_MOTION_DDOT":0}]
